{
  "type": "FeatureCollection",
  "features": [
    {
      "type": "Feature",
      "properties": { "id": "north-sea", "name": "Noordzee", "kind": "sea" },
      "geometry": {
        "type": "Polygon",
        "coordinates": [
          [
            [-4, 51], [1, 50.5], [4, 51.5], [8, 53.5], [8.5, 56],
            [7, 58.5], [5, 61], [-1, 61], [-3.5, 58.5], [-4, 55],
            [-2, 52.5], [-4, 51]
          ]
        ]
      }
    },
    {
      "type": "Feature",
      "properties": { "id": "baltic-sea", "name": "Oostzee", "kind": "sea" },
      "geometry": {
        "type": "Polygon",
        "coordinates": [
          [
            [10, 54], [14, 53.8], [19, 54.3], [23, 55], [26, 60],
            [30, 65], [24, 66], [20, 63], [16, 60], [12, 58],
            [10, 56], [10, 54]
          ]
        ]
      }
    },
    {
      "type": "Feature",
      "properties": { "id": "mediterranean-sea", "name": "Middellandse Zee", "kind": "sea" },
      "geometry": {
        "type": "Polygon",
        "coordinates": [
          [
            [-6, 36], [-1, 37.2], [3, 38.5], [9, 38], [12, 37],
            [15, 32], [20, 32], [24, 34], [28, 31], [34, 31.5],
            [36, 34], [34, 36.5], [28, 37], [24, 40], [19, 40.5],
            [15, 44], [11, 44], [7, 43.2], [3, 42.8], [-1, 39],
            [-4, 38], [-6, 36]
          ]
        ]
      }
    },
    {
      "type": "Feature",
      "properties": { "id": "black-sea", "name": "Zwarte Zee", "kind": "sea" },
      "geometry": {
        "type": "Polygon",
        "coordinates": [
          [
            [27.5, 41.2], [29, 45.2], [32, 46.6], [35, 46.8], [38, 46],
            [41.5, 44.5], [41, 42], [37, 41], [32, 41], [29, 40.9],
            [27.5, 41.2]
          ]
        ]
      }
    },
    {
      "type": "Feature",
      "properties": { "id": "atlantic-ocean", "name": "Atlantische Oceaan", "kind": "ocean" },
      "geometry": {
        "type": "Polygon",
        "coordinates": [
          [
            [-65, 52], [-45, 58], [-20, 62], [-8, 58], [-10, 45],
            [-6, 36], [-16, 22], [-18, 5], [-8, -10], [-12, -25],
            [-9, -35], [-15, -48], [-35, -55], [-58, -48], [-68, -35],
            [-70, -18], [-78, -2], [-82, 10], [-80, 24], [-75, 32],
            [-70, 42], [-65, 52]
          ]
        ]
      }
    },
    {
      "type": "Feature",
      "properties": { "id": "pacific-ocean", "name": "Stille Oceaan", "kind": "ocean" },
      "geometry": {
        "type": "MultiPolygon",
        "coordinates": [
          [
            [
              [-180, 60], [-160, 62], [-140, 58], [-125, 48], [-118, 30],
              [-105, 18], [-95, 8], [-82, -2], [-78, -18], [-85, -35],
              [-95, -50], [-130, -55], [-160, -50], [-180, -35], [-180, 60]
            ]
          ],
          [
            [
              [120, 48], [135, 52], [150, 55], [165, 58], [180, 55],
              [180, -35], [165, -48], [150, -52], [130, -42], [115, -25],
              [108, -5], [112, 15], [118, 32], [120, 48]
            ]
          ]
        ]
      }
    },
    {
      "type": "Feature",
      "properties": { "id": "indian-ocean", "name": "Indische Oceaan", "kind": "ocean" },
      "geometry": {
        "type": "Polygon",
        "coordinates": [
          [
            [32, 27], [45, 22], [58, 25], [68, 22], [78, 18],
            [90, 12], [102, 3], [112, -8], [120, -12], [116, -30],
            [104, -40], [88, -48], [70, -50], [52, -45], [38, -35],
            [32, -22], [30, -5], [32, 12], [32, 27]
          ]
        ]
      }
    },
    {
      "type": "Feature",
      "properties": { "id": "arctic-ocean", "name": "Noordelijke IJszee", "kind": "ocean" },
      "geometry": {
        "type": "Polygon",
        "coordinates": [
          [
            [-180, 68], [-140, 70], [-100, 72], [-60, 71], [-20, 70],
            [10, 71], [50, 72], [90, 73], [130, 72], [170, 71],
            [180, 68], [180, 89.5], [-180, 89.5], [-180, 68]
          ]
        ]
      }
    }
  ]
}
